IRIDIUM 155             
1 43573U 18061E   20050.21497389  .00000056  00000-0  13096-4 0  9992
2 43573  86.3967 302.0532 0002019  67.5226 292.6184 14.34219509 82266
IRIDIUM 154             
1 43574U 18061F   20050.40525164  .00000087  00000-0  24002-4 0  9990
2 43574  86.3972 301.9979 0002286  90.8246 269.3211 14.34216122 82342
IRIDIUM 163             
1 43575U 18061G   20050.45599400  .00000063  00000-0  15538-4 0  9998
2 43575  86.3969 301.9621 0001642 102.9926 257.1453 14.34220207 82328
IRIDIUM 156             
1 43576U 18061H   20050.22132209  .00000118  00000-0  34968-4 0  9993
2 43576  86.3969 302.0648 0001641  83.1248 277.0134 14.34218589 82277
IRIDIUM 164             
1 43577U 18061J   20050.41159669  .00000071  00000-0  18320-4 0  9996
2 43577  86.3970 301.9906 0002110  92.0314 268.1123 14.34218452 82357
IRIDIUM 159             
1 43578U 18061K   20050.44963455  .00000058  00000-0  13599-4 0  9994
2 43578  86.3969 301.9599 0002175  90.0514 270.0931 14.34221481 82327
IRIDIUM 180             
1 43922U 19002A   20050.51889918  .00000033  00000-0  46254-5 0  9990
2 43922  86.3950 238.7409 0002836 114.0508 246.0985 14.34217744 57940
IRIDIUM 176             
1 43923U 19002B   20050.54829303  .00000057  00000-0  50790-5 0  9992
2 43923  86.6087 238.7487 0002247  95.6051 264.5422 14.72257487 59431
IRIDIUM 168             
1 43924U 19002C   20050.58233350  .00000018  00000-0 -59099-6 0  9998
2 43924  86.3953 238.7261 0002255  93.2800 266.8653 14.34217904 57938
IRIDIUM 173             
1 43925U 19002D   20050.56965223  .00000014  00000-0 -20362-5 0  9994
2 43925  86.3950 238.7143 0002109  92.5012 267.6426 14.34219708 57920
IRIDIUM 169             
1 43926U 19002E   20050.09642981  .00000080  00000-0  19674-4 0  9991
2 43926  86.4198 270.5032 0006374  40.7650 319.4024 14.38609446 58105
IRIDIUM 172             
1 43927U 19002F   20050.56331495  .00000018  00000-0 -75348-6 0  9993
2 43927  86.3950 238.7175 0002184  95.5682 264.5763 14.34217818 57926
IRIDIUM 175             
1 43928U 19002G   20050.54219670  .00000051  00000-0  41778-5 0  9997
2 43928  86.6070 238.6666 0001829  68.3393 291.8019 14.72249252 59422
IRIDIUM 171             
1 43929U 19002H   20050.54426675  .00000018  00000-0 -79388-6 0  9996
2 43929  86.3960 238.7752 0002250  92.8473 267.2981 14.34219026 57916
IRIDIUM 170             
1 43930U 19002J   20050.48658151  .00000056  00000-0  49631-5 0  9995
2 43930  86.6086 238.7817 0001969  92.4778 267.6664 14.72250625 59435
IRIDIUM 167             
1 43931U 19002K   20050.53793243  .00000019  00000-0 -37652-6 0  9995
2 43931  86.3951 238.7302 0002662 107.5472 252.6014 14.34216870 57919
